NORAD_CAT_ID,OBJECT_NAME,OBJECT_TYPE,EPOCH,MEAN_MOTION,ECCENTRICITY,INCLINATION,RA_OF_ASC_NODE,ARG_OF_PERICENTER,MEAN_ANOMALY,BSTAR,MEAN_MOTION_DOT,MEAN_MOTION_DDOT,TLE_LINE0,TLE_LINE1,TLE_LINE2,SEMIMAJOR_AXIS,PERIOD,APOGEE,PERIGEE,DECAYED
51798.0,STARLINK-3634,PAYLOAD,2022-12-02 15:05:34,15.08833355,0.0002669,53.2187,304.9713,32.3967,327.7189,-1.6044e-05,-5.44e-06,0.0,0 STARLINK-3634,1 51798U 22017AG  22336.62886972 -.00000544  00000-0 -16044-4 0  9990,2 51798  53.2187 304.9713 0002669  32.3967 327.7189 15.08833355 43856,6917.901,95.438,541.612,537.919,0.0
51798.0,STARLINK-3634,PAYLOAD,2022-12-03 06:59:26,15.08827272,0.0002734,53.2189,301.9976,32.9016,327.2146,-5.5986e-06,-3.78e-06,0.0,0 STARLINK-3634,1 51798U 22017AG  22337.29127700 -.00000378  00000-0 -55986-5 0  9995,2 51798  53.2189 301.9976 0002734  32.9016 327.2146 15.08827272 43950,6917.919,95.438,541.6759999999998,537.893,0.0
51798.0,STARLINK-3634,PAYLOAD,2022-12-03 21:17:54,15.08837765,0.0002807,53.2191,299.3216,34.626999999999995,325.4904,-2.2592e-06,-3.25e-06,0.0,0 STARLINK-3634,1 51798U 22017AG  22337.88743271 -.00000325  00000-0 -22592-5 0  9996,2 51798  53.2191 299.3216 0002807  34.6270 325.4904 15.08837765 44043,6917.887,95.438,541.694,537.81,0.0
51798.0,STARLINK-3634,PAYLOAD,2022-12-04 03:39:26,15.0884045,0.0002658,53.2192,298.1321,34.3392,325.7772,6.886e-05,8.08e-06,0.0,0 STARLINK-3634,1 51798U 22017AG  22338.15238919  .00000808  00000-0  68860-4 0  9996,2 51798  53.2192 298.1321 0002658  34.3392 325.7772 15.08840450 44089,6917.879,95.438,541.5830000000002,537.905,0.0
51798.0,STARLINK-3634,PAYLOAD,2022-12-04 05:14:49,15.08842742,0.00027,53.2184,297.8342,32.8777,327.2382,7.9808e-05,9.82e-06,0.0,0 STARLINK-3634,1 51798U 22017AG  22338.21862798  .00000982  00000-0  79808-4 0  9998,2 51798  53.2184 297.8342 0002700  32.8777 327.2382 15.08842742 44098,6917.871999999999,95.437,541.605,537.869,0.0
51798.0,STARLINK-3634,PAYLOAD,2022-12-04 14:47:07,15.08852084,0.0002703,53.2194,296.0502,33.9838,326.1326,0.00013516,1.864e-05,0.0,0 STARLINK-3634,1 51798U 22017AG  22338.61605970  .00001864  00000-0  13516-3 0  9992,2 51798  53.2194 296.0502 0002703  33.9838 326.1326 15.08852084 44154,6917.843000000003,95.437,541.578,537.839,0.0
51798.0,STARLINK-3634,PAYLOAD,2022-12-05 00:19:26,15.08841342,0.0002614,53.2191,294.2673,31.1313,328.9834,0.00019858,2.874e-05,0.0,0 STARLINK-3634,1 51798U 22017AG  22339.01350528  .00002874  00000-0  19858-3 0  9990,2 51798  53.2191 294.2673 0002614  31.1313 328.9834 15.08841342 44215,6917.876,95.437,541.55,537.933,0.0
51798.0,STARLINK-3634,PAYLOAD,2022-12-05 06:40:59,15.08847575,0.0002808,53.2178,293.0764,35.4143,324.7035,0.00016709,2.372e-05,0.0,0 STARLINK-3634,1 51798U 22017AG  22339.27846301  .00002372  00000-0  16709-3 0  9992,2 51798  53.2178 293.0764 0002808  35.4143 324.7035 15.08847575 44256,6917.857,95.437,541.665,537.78,0.0
51798.0,STARLINK-3634,PAYLOAD,2022-12-05 14:37:54,15.08847115,0.0003041,53.218,291.5908,31.4778,328.6395,0.00013848,1.917e-05,0.0,0 STARLINK-3634,1 51798U 22017AG  22339.60966300  .00001917  00000-0  13848-3 0  9996,2 51798  53.2180 291.5908 0003041  31.4778 328.6395 15.08847115 44300,6917.859,95.437,541.827,537.62,0.0
51798.0,STARLINK-3634,PAYLOAD,2022-12-06 06:31:46,15.08848277,0.0002642,53.2186,288.6159,35.414,324.7027,6.1455e-05,6.900000000000003e-06,0.0,0 STARLINK-3634,1 51798U 22017AG  22340.27206092  .00000690  00000-0  61455-4 0  9991,2 51798  53.2186 288.6159 0002642  35.4140 324.7027 15.08848277 44404,6917.855,95.437,541.548,537.8919999999998,0.0
51798.0,STARLINK-3634,PAYLOAD,2022-12-07 04:47:09,15.08850292,0.0002638,53.2183,284.4522,34.5593,325.5571,1.3077e-05,-8e-07,0.0,0 STARLINK-3634,1 51798U 22017AG  22341.19941535 -.00000080  00000-0  13077-4 0  9992,2 51798  53.2183 284.4522 0002638  34.5593 325.5571 15.08850292 44544,6917.849,95.437,541.539,537.889,0.0
51798.0,STARLINK-3634,PAYLOAD,2022-12-08 03:02:34,15.0883801,0.0002681,53.2185,280.2914,30.8612,329.2538,3.9756e-05,3.44e-06,0.0,0 STARLINK-3634,1 51798U 22017AG  22342.12679140  .00000344  00000-0  39756-4 0  9990,2 51798  53.2185 280.2914 0002681  30.8612 329.2538 15.08838010 44687,6917.886,95.438,541.606,537.8969999999998,0.0
51798.0,STARLINK-3634,PAYLOAD,2022-12-08 12:34:52,15.08855187,0.0002594,53.2187,278.5068,32.081,328.0339,0.00017178,2.448e-05,0.0,0 STARLINK-3634,1 51798U 22017AG  22342.52421531  .00002448  00000-0  17178-3 0  9993,2 51798  53.2187 278.5068 0002594  32.0810 328.0339 15.08855187 44743,6917.834,95.437,541.493,537.904,0.0
51798.0,STARLINK-3634,PAYLOAD,2022-12-09 02:53:20,15.08824879,0.0002338,53.2193,275.8406,42.8751,317.2423,0.00067504,0.00010467,0.0,0 STARLINK-3634,1 51798U 22017AG  22343.12038018  .00010467  00000-0  67504-3 0  9992,2 51798  53.2193 275.8406 0002338  42.8751 317.2423 15.08824879 44833,6917.927,95.439,541.409,538.174,0.0
51798.0,STARLINK-3634,PAYLOAD,2022-12-09 04:28:33,15.089990599999998,0.0001873,53.2182,275.5366,349.8001,10.2953,0.0010184,0.00016028,0.0,0 STARLINK-3634,1 51798U 22017AG  22343.18650078  .00016028  00000-0  10184-2 0  9994,2 51798  53.2182 275.5366 0001873 349.8001  10.2953 15.08999060 44848,6917.394,95.427,540.555,537.964,0.0
51798.0,STARLINK-3634,PAYLOAD,2022-12-10 10:41:05,15.08834206,0.0002683,53.2183,269.8837,28.2334,331.8803,-4.248e-05,-9.64e-06,0.0,0 STARLINK-3634,1 51798U 22017AG  22344.44520230 -.00000964  00000-0 -42480-4 0  9990,2 51798  53.2183 269.8837 0002683  28.2334 331.8803 15.08834206 45033,6917.898,95.438,541.619,537.9069999999998,0.0
51798.0,STARLINK-3634,PAYLOAD,2022-12-11 02:34:56,15.08845635,0.0002726,53.2176,266.9099,29.3215,330.793,0.00012456,1.695e-05,0.0,0 STARLINK-3634,1 51798U 22017AG  22345.10759395  .00001695  00000-0  12456-3 0  9999,2 51798  53.2176 266.9099 0002726  29.3215 330.7930 15.08845635 45139,6917.863,95.437,541.614,537.842,0.0
51798.0,STARLINK-3634,PAYLOAD,2022-12-11 05:45:42,15.08844357,0.0002656,53.2173,266.3156,27.0228,333.0902,0.00042806,6.532e-05,0.0,0 STARLINK-3634,1 51798U 22017AG  22345.24007511  .00006532  00000-0  42806-3 0  9997,2 51798  53.2173 266.3156 0002656  27.0228 333.0902 15.08844357 45152,6917.8669999999975,95.437,541.569,537.895,0.0
51798.0,STARLINK-3634,PAYLOAD,2022-12-12 02:25:43,15.08850786,0.0002705,53.2168,262.4498,30.0259,330.0888,0.00027585,4.106e-05,0.0,0 STARLINK-3634,1 51798U 22017AG  22346.10119708  .00004106  00000-0  27585-3 0  9997,2 51798  53.2168 262.4498 0002705  30.0259 330.0888 15.08850786 45282,6917.847,95.437,541.5840000000002,537.841,0.0
51798.0,STARLINK-3634,PAYLOAD,2022-12-12 04:01:06,15.08851599,0.0002717,53.2168,262.1525,30.2381,329.8767,0.0002809,4.186e-05,0.0,0 STARLINK-3634,1 51798U 22017AG  22346.16743665  .00004186  00000-0  28090-3 0  9998,2 51798  53.2168 262.1525 0002717  30.2381 329.8767 15.08851599 45297,6917.845,95.437,541.59,537.83,0.0
51798.0,STARLINK-3634,PAYLOAD,2022-12-13 00:41:07,15.08841061,0.0002772,53.2174,258.2875,30.2366,329.8785,-2.1192e-06,-3.22e-06,0.0,0 STARLINK-3634,1 51798U 22017AG  22347.02855647 -.00000322  00000-0 -21192-5 0  9996,2 51798  53.2174 258.2875 0002772  30.2366 329.8785 15.08841061 45420,6917.877,95.437,541.66,537.825,0.0
51798.0,STARLINK-3634,PAYLOAD,2022-12-13 03:51:53,15.08843339,0.0002767,53.2177,257.6922,31.929,328.1869999999999,-1.5448e-05,-5.34e-06,0.0,0 STARLINK-3634,1 51798U 22017AG  22347.16103635 -.00000534  00000-0 -15448-4 0  9995,2 51798  53.2177 257.6922 0002767  31.9290 328.1870 15.08843339 45446,6917.87,95.437,541.649,537.821,0.0
51798.0,STARLINK-3634,PAYLOAD,2022-12-14 03:42:40,15.08837524,0.0002844,53.218,253.2324,32.0707,328.0458,-2.4986e-05,-6.86e-06,0.0,0 STARLINK-3634,1 51798U 22017AG  22348.15463921 -.00000686  00000-0 -24986-4 0  9997,2 51798  53.2180 253.2324 0002844  32.0707 328.0458 15.08837524 45595,6917.888000000001,95.438,541.72,537.786,0.0
51798.0,STARLINK-3634,PAYLOAD,2022-12-15 09:54:59,15.08847705,0.0002708,53.218,247.582,29.9849,330.1298,0.00013163,1.808e-05,0.0,0 STARLINK-3634,1 51798U 22017AG  22349.41319146  .00001808  00000-0  13163-3 0  9995,2 51798  53.2180 247.5820 0002708  29.9849 330.1298 15.08847705 45782,6917.857,95.437,541.595,537.8480000000002,0.0
51798.0,STARLINK-3634,PAYLOAD,2022-12-15 17:51:55,15.08838678,0.0002585,53.2178,246.0952,29.8151,330.2988,0.00018139,2.6e-05,0.0,0 STARLINK-3634,1 51798U 22017AG  22349.74439597  .00002600  00000-0  18139-3 0  9993,2 51798  53.2178 246.0952 0002585  29.8151 330.2988 15.08838678 45839,6917.884,95.438,541.538,537.961,0.0
51798.0,STARLINK-3634,PAYLOAD,2022-12-16 09:45:47,15.08837719,0.000259,53.2177,243.1221,29.2943,330.8194,0.00012139,1.644e-05,0.0,0 STARLINK-3634,1 51798U 22017AG  22350.40679901  .00001644  00000-0  12139-3 0  9994,2 51798  53.2177 243.1221 0002590  29.2943 330.8194 15.08837719 45935,6917.887,95.438,541.544,537.961,0.0
51798.0,STARLINK-3634,PAYLOAD,2022-12-16 20:53:29,15.08838328,0.0002607,53.217,241.0406,30.4309,329.6834,-1.1088e-05,-4.65e-06,0.0,0 STARLINK-3634,1 51798U 22017AG  22350.87047772 -.00000465  00000-0 -11088-4 0  9995,2 51798  53.2170 241.0406 0002607  30.4309 329.6834 15.08838328 46002,6917.885,95.438,541.554,537.947,0.0
51798.0,STARLINK-3634,PAYLOAD,2022-12-17 01:39:38,15.0883961,0.0002628999999999,53.217,240.1485,30.1125,330.0018,1.0683e-05,-1.18e-06,0.0,0 STARLINK-3634,1 51798U 22017AG  22351.06919778 -.00000118  00000-0  10683-4 0  9995,2 51798  53.2170 240.1485 0002629  30.1125 330.0018 15.08839610 46034,6917.882,95.438,541.565,537.928,0.0
51798.0,STARLINK-3634,PAYLOAD,2022-12-17 09:36:34,15.08829424,0.0002675,53.2167,238.662,27.1966,332.9166,-0.00013111,-2.374e-05,0.0,0 STARLINK-3634,1 51798U 22017AG  22351.40040383 -.00002374  00000-0 -13111-3 0  9995,2 51798  53.2167 238.6620 0002675  27.1966 332.9166 15.08829424 46085,6917.913000000001,95.438,541.628,537.927,0.0
